QIANFAN-73              
1 63159U 25046A   25338.60638798  .00000056  00000+0  67313-4 0  9993
2 63159  88.9753 320.8650 0015950 141.5011 218.7281 13.50974843 46310
QIANFAN-74              
1 63160U 25046B   25338.58979985  .00000084  00000+0  11124-3 0  9997
2 63160  88.9754 320.7553 0001978  81.5584 278.5791 13.50977166 46374
QIANFAN-75              
1 63161U 25046C   25338.57707316  .00000099  00000+0  13487-3 0  9994
2 63161  88.9755 320.9901 0016965 144.8788 215.3485 13.50975685 46245
QIANFAN-76              
1 63162U 25046D   25338.64769660 -.00000066  00000+0 -12132-3 0  9995
2 63162  88.9752 320.9639 0014485 144.4447 215.7672 13.50962482 46269
QIANFAN-77              
1 63163U 25046E   25338.65830931  .00000410  00000+0  28859-3 0  9991
2 63163  88.9756 319.0357 0016816 103.5257 256.7795 13.96081342 47321
QIANFAN-78              
1 63164U 25046F   25338.61459041  .00000055  00000+0  66030-4 0  9996
2 63164  88.9754 320.8311 0015823 147.0476 213.1665 13.50974982 46337
QIANFAN-79              
1 63165U 25046G   25338.56919755  .00000065  00000+0  82362-4 0  9991
2 63165  88.9758 320.9430 0015565 145.4357 214.7810 13.50976484 46279
QIANFAN-80              
1 63166U 25046H   25338.58570034  .00000112  00000+0  15413-3 0  9992
2 63166  88.9755 320.6483 0014410 148.9062 211.2945 13.50973936 46439
